[{"OBJECT_NAME":"AEROCUBE 6B","OBJECT_ID":"2014-033AN","EPOCH":"2026-03-09T10:13:48.857088","MEAN_MOTION":14.98232474,"ECCENTRICITY":0.00374529,"INCLINATION":97.7129,"RA_OF_ASC_NODE":236.1645,"ARG_OF_PERICENTER":343.23,"MEAN_ANOMALY":16.7681,"EPHEMERIS_TYPE":0,"CLASSIFICATION_TYPE":"U","NORAD_CAT_ID":40046,"ELEMENT_SET_NO":999,"REV_AT_EPOCH":63181,"BSTAR":0.00066368498,"MEAN_MOTION_DOT":7.941e-5,"MEAN_MOTION_DDOT":0},{"OBJECT_NAME":"STARLINK-34805","OBJECT_ID":"2025-165R","EPOCH":"2026-03-09T17:29:29.820768","MEAN_MOTION":15.05650108,"ECCENTRICITY":7.037e-5,"INCLINATION":97.6032,"RA_OF_ASC_NODE":147.2278,"ARG_OF_PERICENTER":127.4817,"MEAN_ANOMALY":232.6474,"EPHEMERIS_TYPE":0,"CLASSIFICATION_TYPE":"U","NORAD_CAT_ID":65071,"ELEMENT_SET_NO":999,"REV_AT_EPOCH":3479,"BSTAR":6.8802336e-5,"MEAN_MOTION_DOT":9.32e-6,"MEAN_MOTION_DDOT":0}]
